OBJECT_NAME,OBJECT_ID,EPOCH,MEAN_MOTION,ECCENTRICITY,INCLINATION,RA_OF_ASC_NODE,ARG_OF_PERICENTER,MEAN_ANOMALY,EPHEMERIS_TYPE,CLASSIFICATION_TYPE,NORAD_CAT_ID,ELEMENT_SET_NO,REV_AT_EPOCH,BSTAR,MEAN_MOTION_DOT,MEAN_MOTION_DDOT
LEMUR-2-ROUNDTRIPPER,2025-009DG,2026-07-01T11:10:11.955360,15.04023387,.00049728,97.7235,265.1255,97.4312,262.7479,0,U,62711,999,7977,.8755426E-3,.12059E-3,0
LEMUR-2-MYNAMEISJEFF,2025-009DH,2026-07-01T11:07:54.772896,15.04016041,.00037272,97.7278,265.5133,127.1153,233.0414,0,U,62712,999,7977,.84219008E-3,.11592E-3,0
LEMUR-2-LEIA-PHILIP,2025-052AN,2026-07-01T15:18:42.194304,14.97352711,.00042946,97.6813,74.3444,159.0686,201.0713,0,U,63246,999,7083,.15751546E-3,.1771E-4,0
LEMUR-2-LIA-MARTIN,2025-052AQ,2026-07-01T12:06:22.364064,14.97914677,.00045306,97.6865,74.7092,125.9899,234.1744,0,U,63248,999,7082,.4580812E-3,.5341E-4,0
LEMUR-2-DELOITTE-1,2025-052BB,2026-07-01T09:58:54.599808,14.97700178,.00025996,97.6902,74.9538,68.9515,291.1985,0,U,63259,999,7082,.37405367E-3,.4325E-4,0
LEMUR-2-EMERSONROSE,2025-052BD,2026-07-01T12:15:15.556608,14.99184332,.0002441,97.6870,75.6308,77.8530,282.2966,0,U,63261,999,7088,.40465169E-3,.4869E-4,0
LEMUR-2-MARACHE-FRAN,2025-052BE,2026-07-01T05:01:19.941312,15.00222394,.00043543,97.6900,75.6807,321.1543,38.9367,0,U,63262,999,7086,.48070245E-3,.5956E-4,0
LEMUR-2-THEFALCONER,2025-052BG,2026-07-01T12:16:10.372224,14.97479455,.00012073,97.6841,74.6510,24.1400,335.9878,0,U,63264,999,7083,.39536941E-3,.4549E-4,0
LEMUR-2-UNTITLED-SC,2025-061A,2026-07-01T12:01:56.685792,15.13567939,.00177674,97.5641,157.7596,210.8283,149.1907,0,U,63351,999,6975,.20551497E-3,.3632E-4,0
LEMUR-2-ESPERANZA,2025-061B,2026-07-01T11:27:46.467360,15.13661186,.00173804,97.5650,157.8329,210.1928,149.8303,0,U,63352,999,6975,.23441067E-3,.4163E-4,0
LEMUR-2-KREMPEL-BRO2,2025-061C,2026-07-01T12:00:40.371264,15.14098330,.00185109,97.5696,158.4073,202.3751,157.6675,0,U,63353,999,6977,.20667752E-3,.371E-4,0
LEMUR-2-THERMORAPTOR,2025-061D,2026-07-01T11:33:45.433440,15.14182361,.00182486,97.5702,158.4671,201.4534,158.5934,0,U,63354,999,6977,.25468268E-3,.4598E-4,0
LEMUR-2-NEUROSPICY,2025-061E,2026-07-01T12:26:32.630208,15.14298667,.00160291,97.5627,158.1187,204.0447,156.0038,0,U,63355,999,6978,.20748374E-3,.3742E-4,0
LEMUR-2-TILLINFINITY,2025-061F,2026-07-01T11:34:15.159360,15.14882593,.00175974,97.5614,158.3832,192.4323,167.6478,0,U,63356,999,6980,.24639947E-3,.4535E-4,0
LEMUR-2-KREMPEL-BRO1,2025-061G,2026-07-01T12:33:49.007232,15.14689665,.00182244,97.5616,158.3360,193.5344,166.5402,0,U,63357,999,6980,.21169536E-3,.3866E-4,0
LEMUR-2-LANGER2SPACE,2025-061H,2026-07-01T11:40:57.963936,15.14383645,.00159494,97.5619,158.1079,202.5973,157.4558,0,U,63358,999,6978,.24288522E-3,.4403E-4,0
LEMUR-2-BALTO,2025-052BH,2026-07-01T06:15:19.821312,15.00241630,.00062027,97.6926,75.7076,19.1188,341.0267,0,U,63395,999,7087,.56579395E-3,.7027E-4,0
LEMUR-2-KRISH,2025-135AK,2026-07-01T06:02:31.677792,14.96331612,.00012845,97.7754,297.0316,107.4554,252.6807,0,U,64561,999,5602,.55637377E-3,.6238E-4,0
LEMUR-2-HUBBLE-4,2025-135AP,2026-07-01T06:34:44.813856,14.93652248,.00014469,97.7710,296.0130,205.5062,154.6087,0,U,64565,999,5597,.19777722E-3,.2033E-4,0
LEMUR-2-SEJONG-2,2025-135BL,2026-07-01T13:04:12.404064,14.96819758,.00026869,97.7716,297.4679,280.2161,79.8757,0,U,64586,999,5609,.49681553E-3,.5634E-4,0
LEMUR-2-HUBBLE-5,2025-135BT,2026-07-01T13:20:16.609056,14.94179849,.00041316,97.7732,296.9461,296.9298,63.1499,0,U,64840,999,5605,.14015198E-3,.1444E-4,0
LEMUR-2-KARENDARRELL,2025-135BU,2026-07-01T06:12:05.042016,15.00322136,.00109992,97.7695,298.4439,150.1547,210.0306,0,U,64841,999,5612,.88068631E-3,.11008E-3,0
LEMUR-2-LUCILLE-ROSE,2025-135BV,2026-07-01T13:34:01.346304,15.00332893,.00130507,97.7742,298.7827,231.9098,128.0949,0,U,65403,999,5079,.66715644E-3,.8327E-4,0
LEMUR-2-AFFIE-WAUWIE,2025-248C,2026-07-01T15:22:12.440064,15.27762233,.00081716,45.3938,36.6515,179.1920,180.8984,0,U,66295,999,3680,.95282251E-3,.26135E-3,0
LEMUR-2-DEANANDMAEVE,2025-276N,2026-07-01T14:26:39.379488,15.19909216,.0004463,97.4210,255.8392,318.0155,42.0737,0,U,66678,999,3260,.36357602E-3,.7746E-4,0
LEMUR-2-STAS-GORBUK,2025-276W,2026-07-01T03:48:43.297344,15.19526624,.0003749,97.4245,255.4571,319.6736,40.4220,0,U,66686,999,3253,.34563E-3,.7278E-4,0
LEMUR-2-TEODOR,2025-276DG,2026-07-01T10:56:54.227616,15.21206708,.0002376,97.4150,256.0041,102.2982,257.8520,0,U,66768,999,3261,.33357709E-3,.7375E-4,0
LEMUR-2-LAILA,2025-276DQ,2026-07-01T03:57:30.460032,15.21426597,.0002806,97.4173,255.8467,115.4973,244.6553,0,U,66776,999,3257,.34189E-3,.761E-4,0
LEMUR-2-CELIJO-SB-PK,2025-276DW,2026-07-01T10:40:52.617216,15.00148612,.00078382,97.5219,252.7535,98.1084,262.1029,0,U,66781,999,2476,.69694119E-3,.8654E-4,0
