LEMUR-2-ROUNDTRIPPER    
1 62711U 25009DG  26182.46541615  .00012059  00000+0  87554-3 0  9992
2 62711  97.7235 265.1255 0004972  97.4312 262.7479 15.04023387 79776
LEMUR-2-MYNAMEISJEFF    
1 62712U 25009DH  26182.46382839  .00011592  00000+0  84219-3 0  9990
2 62712  97.7278 265.5133 0003727 127.1153 233.0414 15.04016041 79773
LEMUR-2-LEIA-PHILIP     
1 63246U 25052AN  26182.63798836  .00001771  00000+0  15752-3 0  9992
2 63246  97.6813  74.3444 0004294 159.0686 201.0713 14.97352711 70839
LEMUR-2-LIA-MARTIN      
1 63248U 25052AQ  26182.50442551  .00005341  00000+0  45808-3 0  9992
2 63248  97.6865  74.7092 0004530 125.9899 234.1744 14.97914677 70827
LEMUR-2-DELOITTE-1      
1 63259U 25052BB  26182.41590972  .00004325  00000+0  37405-3 0  9990
2 63259  97.6902  74.9538 0002599  68.9515 291.1985 14.97700178 70821
LEMUR-2-EMERSONROSE     
1 63261U 25052BD  26182.51059672  .00004869  00000+0  40465-3 0  9994
2 63261  97.6870  75.6308 0002441  77.8530 282.2966 14.99184332 70889
LEMUR-2-MARACHE-FRAN    
1 63262U 25052BE  26182.20925858  .00005956  00000+0  48070-3 0  9997
2 63262  97.6900  75.6807 0004354 321.1543  38.9367 15.00222394 70865
LEMUR-2-THEFALCONER     
1 63264U 25052BG  26182.51123116  .00004549  00000+0  39537-3 0  9995
2 63264  97.6841  74.6510 0001207  24.1400 335.9878 14.97479455 70838
LEMUR-2-UNTITLED-SC     
1 63351U 25061A   26182.50135053  .00003632  00000+0  20551-3 0  9992
2 63351  97.5641 157.7596 0017767 210.8283 149.1907 15.13567939 69751
LEMUR-2-ESPERANZA       
1 63352U 25061B   26182.47762115  .00004163  00000+0  23441-3 0  9995
2 63352  97.5650 157.8329 0017380 210.1928 149.8303 15.13661186 69753
LEMUR-2-KREMPEL-BRO2    
1 63353U 25061C   26182.50046726  .00003710  00000+0  20668-3 0  9998
2 63353  97.5696 158.4073 0018510 202.3751 157.6675 15.14098330 69777
LEMUR-2-THERMORAPTOR    
1 63354U 25061D   26182.48177585  .00004598  00000+0  25468-3 0  9992
2 63354  97.5702 158.4671 0018248 201.4534 158.5934 15.14182361 69773
LEMUR-2-NEUROSPICY      
1 63355U 25061E   26182.51843322  .00003742  00000+0  20748-3 0  9992
2 63355  97.5627 158.1187 0016029 204.0447 156.0038 15.14298667 69782
LEMUR-2-TILLINFINITY    
1 63356U 25061F   26182.48211990  .00004535  00000+0  24640-3 0  9995
2 63356  97.5614 158.3832 0017597 192.4323 167.6478 15.14882593 69808
LEMUR-2-KREMPEL-BRO1    
1 63357U 25061G   26182.52348388  .00003866  00000+0  21170-3 0  9994
2 63357  97.5616 158.3360 0018224 193.5344 166.5402 15.14689665 69800
LEMUR-2-LANGER2SPACE    
1 63358U 25061H   26182.48678199  .00004403  00000+0  24289-3 0  9998
2 63358  97.5619 158.1079 0015949 202.5973 157.4558 15.14383645 69786
LEMUR-2-BALTO           
1 63395U 25052BH  26182.26064608  .00007027  00000+0  56579-3 0  9991
2 63395  97.6926  75.7076 0006202  19.1188 341.0267 15.00241630 70874
LEMUR-2-KRISH           
1 64561U 25135AK  26182.25175553  .00006238  00000+0  55637-3 0  9997
2 64561  97.7754 297.0316 0001284 107.4554 252.6807 14.96331612 56021
LEMUR-2-HUBBLE-4        
1 64565U 25135AP  26182.27412979  .00002033  00000+0  19778-3 0  9994
2 64565  97.7710 296.0130 0001446 205.5062 154.6087 14.93652248 55976
LEMUR-2-SEJONG-2        
1 64586U 25135BL  26182.54458801  .00005634  00000+0  49682-3 0  9998
2 64586  97.7716 297.4679 0002686 280.2161  79.8757 14.96819758 56095
LEMUR-2-HUBBLE-5        
1 64840U 25135BT  26182.55574779  .00001444  00000+0  14015-3 0  9992
2 64840  97.7732 296.9461 0004131 296.9298  63.1499 14.94179849 56054
LEMUR-2-KARENDARRELL    
1 64841U 25135BU  26182.25839169  .00011008  00000+0  88069-3 0  9994
2 64841  97.7695 298.4439 0010999 150.1547 210.0306 15.00322136 56127
LEMUR-2-LUCILLE-ROSE    
1 65403U 25135BV  26182.56529336  .00008327  00000+0  66716-3 0  9990
2 65403  97.7742 298.7827 0013050 231.9098 128.0949 15.00332893 50798
LEMUR-2-AFFIE-WAUWIE    
1 66295U 25248C   26182.64042176  .00026135  00000+0  95282-3 0  9993
2 66295  45.3938  36.6515 0008171 179.1920 180.8984 15.27762233 36807
LEMUR-2-DEANANDMAEVE    
1 66678U 25276N   26182.60184467  .00007746  00000+0  36358-3 0  9991
2 66678  97.4210 255.8392 0004463 318.0155  42.0737 15.19909216 32609
LEMUR-2-STAS-GORBUK     
1 66686U 25276W   26182.15883446  .00007278  00000+0  34563-3 0  9999
2 66686  97.4245 255.4571 0003749 319.6736  40.4220 15.19526624 32538
LEMUR-2-TEODOR          
1 66768U 25276DG  26182.45618319  .00007375  00000+0  33358-3 0  9997
2 66768  97.4150 256.0041 0002376 102.2982 257.8520 15.21206708 32614
LEMUR-2-LAILA           
1 66776U 25276DQ  26182.16493588  .00007610  00000+0  34189-3 0  9998
2 66776  97.4173 255.8467 0002806 115.4973 244.6553 15.21426597 32576
LEMUR-2-CELIJO-SB-PK    
1 66781U 25276DW  26182.44505344  .00008654  00000+0  69694-3 0  9997
2 66781  97.5219 252.7535 0007838  98.1084 262.1029 15.00148612 24767
